CCSDS_OMM_VERS = 2.0
CREATION_DATE  = 
ORIGINATOR     = 

OBJECT_NAME    = ATLAS CENTAUR 2
OBJECT_ID      = 1963-047A
CENTER_NAME    = EARTH
REF_FRAME      = TEME
TIME_SYSTEM    = UTC
MEAN_ELEMENT_THEORY = SGP/SGP4

EPOCH          = 2025-11-04T23:02:52.414368
MEAN_MOTION    = 14.11383111
ECCENTRICITY   = .05502073
INCLINATION    = 30.3509
RA_OF_ASC_NODE = 172.4266
ARG_OF_PERICENTER = 61.4758
MEAN_ANOMALY   = 304.0117

EPHEMERIS_TYPE = 0
CLASSIFICATION_TYPE = U
NORAD_CAT_ID   = 694
ELEMENT_SET_NO = 999
REV_AT_EPOCH   = 11398
BSTAR          = .46194462E-3
MEAN_MOTION_DOT = .3821E-4
MEAN_MOTION_DDOT = 0

CCSDS_OMM_VERS = 2.0
CREATION_DATE  = 
ORIGINATOR     = 

OBJECT_NAME    = THOR AGENA D R/B
OBJECT_ID      = 1964-002A
CENTER_NAME    = EARTH
REF_FRAME      = TEME
TIME_SYSTEM    = UTC
MEAN_ELEMENT_THEORY = SGP/SGP4

EPOCH          = 2025-11-05T06:02:50.606304
MEAN_MOTION    = 14.33926439
ECCENTRICITY   = .00319292
INCLINATION    = 99.1225
RA_OF_ASC_NODE = 310.8420
ARG_OF_PERICENTER = 260.6115
MEAN_ANOMALY   = 99.1457

EPHEMERIS_TYPE = 0
CLASSIFICATION_TYPE = U
NORAD_CAT_ID   = 733
ELEMENT_SET_NO = 999
REV_AT_EPOCH   = 22046
BSTAR          = .13245986E-3
MEAN_MOTION_DOT = .322E-5
MEAN_MOTION_DDOT = 0

CCSDS_OMM_VERS = 2.0
CREATION_DATE  = 
ORIGINATOR     = 

OBJECT_NAME    = SL-3 R/B
OBJECT_ID      = 1964-053B
CENTER_NAME    = EARTH
REF_FRAME      = TEME
TIME_SYSTEM    = UTC
MEAN_ELEMENT_THEORY = SGP/SGP4

EPOCH          = 2025-11-05T06:32:40.288128
MEAN_MOTION    = 14.61213983
ECCENTRICITY   = .00703024
INCLINATION    = 65.0777
RA_OF_ASC_NODE = 335.9552
ARG_OF_PERICENTER = 333.0957
MEAN_ANOMALY   = 26.6503

EPHEMERIS_TYPE = 0
CLASSIFICATION_TYPE = U
NORAD_CAT_ID   = 877
ELEMENT_SET_NO = 999
REV_AT_EPOCH   = 24861
BSTAR          = .10375029E-3
MEAN_MOTION_DOT = .406E-5
MEAN_MOTION_DDOT = 0

CCSDS_OMM_VERS = 2.0
CREATION_DATE  = 
ORIGINATOR     = 

OBJECT_NAME    = SL-8 R/B
OBJECT_ID      = 1967-045B
CENTER_NAME    = EARTH
REF_FRAME      = TEME
TIME_SYSTEM    = UTC
MEAN_ELEMENT_THEORY = SGP/SGP4

EPOCH          = 2025-11-05T05:06:36.683712
MEAN_MOTION    = 14.45492412
ECCENTRICITY   = .00656
INCLINATION    = 74.0113
RA_OF_ASC_NODE = 220.5311
ARG_OF_PERICENTER = 258.0677
MEAN_ANOMALY   = 101.3121

EPHEMERIS_TYPE = 0
CLASSIFICATION_TYPE = U
NORAD_CAT_ID   = 2802
ELEMENT_SET_NO = 999
REV_AT_EPOCH   = 7103
BSTAR          = .12712561E-3
MEAN_MOTION_DOT = .431E-5
MEAN_MOTION_DDOT = 0

CCSDS_OMM_VERS = 2.0
CREATION_DATE  = 
ORIGINATOR     = 

OBJECT_NAME    = SL-8 R/B
OBJECT_ID      = 1968-040B
CENTER_NAME    = EARTH
REF_FRAME      = TEME
TIME_SYSTEM    = UTC
MEAN_ELEMENT_THEORY = SGP/SGP4

EPOCH          = 2025-11-05T03:35:26.354976
MEAN_MOTION    = 15.02147746
ECCENTRICITY   = .00233883
INCLINATION    = 74.0323
RA_OF_ASC_NODE = 207.9546
ARG_OF_PERICENTER = 60.6951
MEAN_ANOMALY   = 299.6570

EPHEMERIS_TYPE = 0
CLASSIFICATION_TYPE = U
NORAD_CAT_ID   = 3230
ELEMENT_SET_NO = 999
REV_AT_EPOCH   = 7130
BSTAR          = .29348759E-3
MEAN_MOTION_DOT = .3844E-4
MEAN_MOTION_DDOT = 0

CCSDS_OMM_VERS = 2.0
CREATION_DATE  = 
ORIGINATOR     = 

OBJECT_NAME    = OAO 2
OBJECT_ID      = 1968-110A
CENTER_NAME    = EARTH
REF_FRAME      = TEME
TIME_SYSTEM    = UTC
MEAN_ELEMENT_THEORY = SGP/SGP4

EPOCH          = 2025-11-05T02:50:41.727264
MEAN_MOTION    = 14.47207726
ECCENTRICITY   = .00062103
INCLINATION    = 34.9930
RA_OF_ASC_NODE = 240.6831
ARG_OF_PERICENTER = 276.5797
MEAN_ANOMALY   = 83.4186

EPHEMERIS_TYPE = 0
CLASSIFICATION_TYPE = U
NORAD_CAT_ID   = 3597
ELEMENT_SET_NO = 999
REV_AT_EPOCH   = 104
BSTAR          = .84918928E-4
MEAN_MOTION_DOT = .296E-5
MEAN_MOTION_DDOT = 0

CCSDS_OMM_VERS = 2.0
CREATION_DATE  = 
ORIGINATOR     = 

OBJECT_NAME    = ISIS 1
OBJECT_ID      = 1969-009A
CENTER_NAME    = EARTH
REF_FRAME      = TEME
TIME_SYSTEM    = UTC
MEAN_ELEMENT_THEORY = SGP/SGP4

EPOCH          = 2025-11-04T13:26:50.104896
MEAN_MOTION    = 11.30332483
ECCENTRICITY   = .170781
INCLINATION    = 88.4531
RA_OF_ASC_NODE = 168.9694
ARG_OF_PERICENTER = 341.8418
MEAN_ANOMALY   = 12.8143

EPHEMERIS_TYPE = 0
CLASSIFICATION_TYPE = U
NORAD_CAT_ID   = 3669
ELEMENT_SET_NO = 999
REV_AT_EPOCH   = 33439
BSTAR          = .14058E-3
MEAN_MOTION_DOT = .2E-5
MEAN_MOTION_DDOT = 0

CCSDS_OMM_VERS = 2.0
CREATION_DATE  = 
ORIGINATOR     = 

OBJECT_NAME    = SERT 2
OBJECT_ID      = 1970-009A
CENTER_NAME    = EARTH
REF_FRAME      = TEME
TIME_SYSTEM    = UTC
MEAN_ELEMENT_THEORY = SGP/SGP4

EPOCH          = 2025-11-05T02:15:58.617216
MEAN_MOTION    = 13.58710666
ECCENTRICITY   = .00055137
INCLINATION    = 99.2583
RA_OF_ASC_NODE = 254.1065
ARG_OF_PERICENTER = 117.2437
MEAN_ANOMALY   = 254.2281

EPHEMERIS_TYPE = 0
CLASSIFICATION_TYPE = U
NORAD_CAT_ID   = 4327
ELEMENT_SET_NO = 999
REV_AT_EPOCH   = 76297
BSTAR          = .52461664E-4
MEAN_MOTION_DOT = -.3E-7
MEAN_MOTION_DDOT = 0

CCSDS_OMM_VERS = 2.0
CREATION_DATE  = 
ORIGINATOR     = 

OBJECT_NAME    = SL-3 R/B
OBJECT_ID      = 1971-028B
CENTER_NAME    = EARTH
REF_FRAME      = TEME
TIME_SYSTEM    = UTC
MEAN_ELEMENT_THEORY = SGP/SGP4

EPOCH          = 2025-11-05T05:50:24.286560
MEAN_MOTION    = 15.51768297
ECCENTRICITY   = .00227204
INCLINATION    = 81.2416
RA_OF_ASC_NODE = 204.5834
ARG_OF_PERICENTER = 17.0039
MEAN_ANOMALY   = 343.1965

EPHEMERIS_TYPE = 0
CLASSIFICATION_TYPE = U
NORAD_CAT_ID   = 5118
ELEMENT_SET_NO = 999
REV_AT_EPOCH   = 96931
BSTAR          = .46291976E-3
MEAN_MOTION_DOT = .28002E-3
MEAN_MOTION_DDOT = 0

CCSDS_OMM_VERS = 2.0
CREATION_DATE  = 
ORIGINATOR     = 

OBJECT_NAME    = ASTEX 1
OBJECT_ID      = 1971-089A
CENTER_NAME    = EARTH
REF_FRAME      = TEME
TIME_SYSTEM    = UTC
MEAN_ELEMENT_THEORY = SGP/SGP4

EPOCH          = 2025-11-05T00:59:20.190624
MEAN_MOTION    = 14.50568033
ECCENTRICITY   = .00170336
INCLINATION    = 92.7119
RA_OF_ASC_NODE = 111.4287
ARG_OF_PERICENTER = 139.5619
MEAN_ANOMALY   = 220.6857

EPHEMERIS_TYPE = 0
CLASSIFICATION_TYPE = U
NORAD_CAT_ID   = 5560
ELEMENT_SET_NO = 999
REV_AT_EPOCH   = 84423
BSTAR          = .16567207E-3
MEAN_MOTION_DOT = .649E-5
MEAN_MOTION_DDOT = 0

CCSDS_OMM_VERS = 2.0
CREATION_DATE  = 
ORIGINATOR     = 

OBJECT_NAME    = SL-8 R/B
OBJECT_ID      = 1971-119B
CENTER_NAME    = EARTH
REF_FRAME      = TEME
TIME_SYSTEM    = UTC
MEAN_ELEMENT_THEORY = SGP/SGP4

EPOCH          = 2025-11-04T16:48:01.372032
MEAN_MOTION    = 14.34814478
ECCENTRICITY   = .05613539
INCLINATION    = 73.8896
RA_OF_ASC_NODE = 48.8162
ARG_OF_PERICENTER = 40.8524
MEAN_ANOMALY   = 323.3316

EPHEMERIS_TYPE = 0
CLASSIFICATION_TYPE = U
NORAD_CAT_ID   = 5730
ELEMENT_SET_NO = 999
REV_AT_EPOCH   = 63754
BSTAR          = .31705319E-3
MEAN_MOTION_DOT = .5938E-4
MEAN_MOTION_DDOT = 0

CCSDS_OMM_VERS = 2.0
CREATION_DATE  = 
ORIGINATOR     = 

OBJECT_NAME    = OAO 3 (COPERNICUS)
OBJECT_ID      = 1972-065A
CENTER_NAME    = EARTH
REF_FRAME      = TEME
TIME_SYSTEM    = UTC
MEAN_ELEMENT_THEORY = SGP/SGP4

EPOCH          = 2025-11-05T06:11:46.470336
MEAN_MOTION    = 14.59855146
ECCENTRICITY   = .00071458
INCLINATION    = 35.0060
RA_OF_ASC_NODE = 286.1765
ARG_OF_PERICENTER = 225.9612
MEAN_ANOMALY   = 151.1812

EPHEMERIS_TYPE = 0
CLASSIFICATION_TYPE = U
NORAD_CAT_ID   = 6153
ELEMENT_SET_NO = 999
REV_AT_EPOCH   = 82800
BSTAR          = .11318625E-3
MEAN_MOTION_DOT = .529E-5
MEAN_MOTION_DDOT = 0

