ATLAS CENTAUR 2         
1 00694U 63047A   25308.96032887  .00003821  00000+0  46194-3 0  9990
2 00694  30.3509 172.4266 0550207  61.4758 304.0117 14.11383111113981
THOR AGENA D R/B        
1 00733U 64002A   25309.25197461  .00000322  00000+0  13246-3 0  9994
2 00733  99.1225 310.8420 0031929 260.6115  99.1457 14.33926439220469
SL-3 R/B                
1 00877U 64053B   25309.27268852  .00000406  00000+0  10375-3 0  9997
2 00877  65.0777 335.9552 0070302 333.0957  26.6503 14.61213983248611
SL-8 R/B                
1 02802U 67045B   25309.21292458  .00000431  00000+0  12713-3 0  9990
2 02802  74.0113 220.5311 0065600 258.0677 101.3121 14.45492412 71032
SL-8 R/B                
1 03230U 68040B   25309.14961059  .00003844  00000+0  29349-3 0  9998
2 03230  74.0323 207.9546 0023388  60.6951 299.6570 15.02147746 71309
OAO 2                   
1 03597U 68110A   25309.11853851  .00000296  00000+0  84919-4 0  9992
2 03597  34.9930 240.6831 0006210 276.5797  83.4186 14.47207726  1045
ISIS 1                  
1 03669U 69009A   25308.56030214  .00000200  00000+0  14058-3 0  9999
2 03669  88.4531 168.9694 1707810 341.8418  12.8143 11.30332483334390
SERT 2                  
1 04327U 70009A   25309.09442844 -.00000003  00000+0  52462-4 0  9992
2 04327  99.2583 254.1065 0005513 117.2437 254.2281 13.58710666762974
SL-3 R/B                
1 05118U 71028B   25309.24333665  .00028002  00000+0  46292-3 0  9991
2 05118  81.2416 204.5834 0022720  17.0039 343.1965 15.51768297969318
ASTEX 1                 
1 05560U 71089A   25309.04120591  .00000649  00000+0  16567-3 0  9998
2 05560  92.7119 111.4287 0017033 139.5619 220.6857 14.50568033844235
SL-8 R/B                
1 05730U 71119B   25308.70001588  .00005938  00000+0  31705-3 0  9994
2 05730  73.8896  48.8162 0561353  40.8524 323.3316 14.34814478637543
OAO 3 (COPERNICUS)      
1 06153U 72065A   25309.25817674  .00000529  00000+0  11319-3 0  9997
2 06153  35.0060 286.1765 0007145 225.9612 151.1812 14.59855146828005
